<?xml version="1.0" encoding="UTF-8"?>
<gpx version="1.1" creator="Apple Watch" xmlns="http://www.topografix.com/GPX/1/1">
  <metadata>
    <name>晨跑 5.12km</name>
  </metadata>
  <trk>
    <name>跑步</name>
    <trkseg>
      <trkpt lat="31.220000" lon="121.480000"></trkpt>
      <trkpt lat="31.220200" lon="121.480600"></trkpt>
      <trkpt lat="31.220400" lon="121.481200"></trkpt>
      <trkpt lat="31.220600" lon="121.481800"></trkpt>
      <trkpt lat="31.220800" lon="121.482400"></trkpt>
      <trkpt lat="31.221000" lon="121.483000"></trkpt>
      <trkpt lat="31.221200" lon="121.483600"></trkpt>
      <trkpt lat="31.221400" lon="121.484200"></trkpt>
      <trkpt lat="31.221600" lon="121.484800"></trkpt>
      <trkpt lat="31.221800" lon="121.485400"></trkpt>
      <trkpt lat="31.222000" lon="121.486000"></trkpt>
      <trkpt lat="31.222800" lon="121.485700"></trkpt>
      <trkpt lat="31.223600" lon="121.485400"></trkpt>
      <trkpt lat="31.224400" lon="121.485100"></trkpt>
      <trkpt lat="31.225200" lon="121.484800"></trkpt>
      <trkpt lat="31.226000" lon="121.484500"></trkpt>
      <trkpt lat="31.226800" lon="121.484200"></trkpt>
      <trkpt lat="31.227600" lon="121.483900"></trkpt>
      <trkpt lat="31.228400" lon="121.483600"></trkpt>
      <trkpt lat="31.229200" lon="121.483300"></trkpt>
      <trkpt lat="31.230000" lon="121.483000"></trkpt>
      <trkpt lat="31.230800" lon="121.482700"></trkpt>
      <trkpt lat="31.231600" lon="121.482400"></trkpt>
      <trkpt lat="31.232400" lon="121.482100"></trkpt>
      <trkpt lat="31.233200" lon="121.481800"></trkpt>
      <trkpt lat="31.234000" lon="121.481500"></trkpt>
      <trkpt lat="31.234800" lon="121.481200"></trkpt>
      <trkpt lat="31.235600" lon="121.480900"></trkpt>
      <trkpt lat="31.236400" lon="121.480600"></trkpt>
      <trkpt lat="31.237200" lon="121.480300"></trkpt>
      <trkpt lat="31.238000" lon="121.480000"></trkpt>
      <trkpt lat="31.238800" lon="121.479700"></trkpt>
      <trkpt lat="31.239600" lon="121.479400"></trkpt>
      <trkpt lat="31.240400" lon="121.479100"></trkpt>
      <trkpt lat="31.241200" lon="121.478800"></trkpt>
      <trkpt lat="31.242000" lon="121.478500"></trkpt>
      <trkpt lat="31.242800" lon="121.478200"></trkpt>
      <trkpt lat="31.243600" lon="121.477900"></trkpt>
      <trkpt lat="31.244400" lon="121.477600"></trkpt>
      <trkpt lat="31.245200" lon="121.477300"></trkpt>
      <trkpt lat="31.246000" lon="121.477000"></trkpt>
      <trkpt lat="31.246800" lon="121.476700"></trkpt>
      <trkpt lat="31.247600" lon="121.476400"></trkpt>
      <trkpt lat="31.248400" lon="121.476100"></trkpt>
      <trkpt lat="31.249200" lon="121.475800"></trkpt>
      <trkpt lat="31.250000" lon="121.475500"></trkpt>
      <trkpt lat="31.250800" lon="121.475200"></trkpt>
      <trkpt lat="31.251600" lon="121.474900"></trkpt>
      <trkpt lat="31.252400" lon="121.474600"></trkpt>
      <trkpt lat="31.253200" lon="121.474300"></trkpt>
      <trkpt lat="31.254000" lon="121.474000"></trkpt>
      <trkpt lat="31.254800" lon="121.473700"></trkpt>
      <trkpt lat="31.255600" lon="121.473400"></trkpt>
      <trkpt lat="31.256400" lon="121.473100"></trkpt>
      <trkpt lat="31.257200" lon="121.472800"></trkpt>
      <trkpt lat="31.258000" lon="121.472500"></trkpt>
      <trkpt lat="31.258800" lon="121.472200"></trkpt>
      <trkpt lat="31.259600" lon="121.471900"></trkpt>
      <trkpt lat="31.260400" lon="121.471600"></trkpt>
      <trkpt lat="31.261200" lon="121.471300"></trkpt>
      <trkpt lat="31.261200" lon="121.471300"></trkpt>
      <trkpt lat="31.260400" lon="121.471600"></trkpt>
      <trkpt lat="31.259600" lon="121.471900"></trkpt>
      <trkpt lat="31.258800" lon="121.472200"></trkpt>
      <trkpt lat="31.258000" lon="121.472500"></trkpt>
      <trkpt lat="31.257200" lon="121.472800"></trkpt>
      <trkpt lat="31.256400" lon="121.473100"></trkpt>
      <trkpt lat="31.255600" lon="121.473400"></trkpt>
      <trkpt lat="31.254800" lon="121.473700"></trkpt>
      <trkpt lat="31.254000" lon="121.474000"></trkpt>
      <trkpt lat="31.253200" lon="121.474300"></trkpt>
      <trkpt lat="31.252400" lon="121.474600"></trkpt>
      <trkpt lat="31.251600" lon="121.474900"></trkpt>
      <trkpt lat="31.250800" lon="121.475200"></trkpt>
      <trkpt lat="31.250000" lon="121.475500"></trkpt>
      <trkpt lat="31.249200" lon="121.475800"></trkpt>
      <trkpt lat="31.248400" lon="121.476100"></trkpt>
      <trkpt lat="31.247600" lon="121.476400"></trkpt>
      <trkpt lat="31.246800" lon="121.476700"></trkpt>
      <trkpt lat="31.246000" lon="121.477000"></trkpt>
      <trkpt lat="31.245200" lon="121.477300"></trkpt>
      <trkpt lat="31.244400" lon="121.477600"></trkpt>
      <trkpt lat="31.243600" lon="121.477900"></trkpt>
      <trkpt lat="31.242800" lon="121.478200"></trkpt>
      <trkpt lat="31.242000" lon="121.478500"></trkpt>
      <trkpt lat="31.241200" lon="121.478800"></trkpt>
      <trkpt lat="31.240400" lon="121.479100"></trkpt>
      <trkpt lat="31.239600" lon="121.479400"></trkpt>
      <trkpt lat="31.238800" lon="121.479700"></trkpt>
      <trkpt lat="31.238000" lon="121.480000"></trkpt>
      <trkpt lat="31.237200" lon="121.480300"></trkpt>
      <trkpt lat="31.236400" lon="121.480600"></trkpt>
      <trkpt lat="31.235600" lon="121.480900"></trkpt>
      <trkpt lat="31.234800" lon="121.481200"></trkpt>
      <trkpt lat="31.234000" lon="121.481500"></trkpt>
      <trkpt lat="31.233200" lon="121.481800"></trkpt>
      <trkpt lat="31.232400" lon="121.482100"></trkpt>
      <trkpt lat="31.231600" lon="121.482400"></trkpt>
      <trkpt lat="31.230800" lon="121.482700"></trkpt>
      <trkpt lat="31.230000" lon="121.483000"></trkpt>
      <trkpt lat="31.229200" lon="121.483300"></trkpt>
      <trkpt lat="31.228400" lon="121.483600"></trkpt>
      <trkpt lat="31.227600" lon="121.483900"></trkpt>
      <trkpt lat="31.226800" lon="121.484200"></trkpt>
      <trkpt lat="31.226000" lon="121.484500"></trkpt>
      <trkpt lat="31.225200" lon="121.484800"></trkpt>
      <trkpt lat="31.224400" lon="121.485100"></trkpt>
      <trkpt lat="31.223600" lon="121.485400"></trkpt>
      <trkpt lat="31.222800" lon="121.485700"></trkpt>
      <trkpt lat="31.222000" lon="121.486000"></trkpt>
      <trkpt lat="31.221800" lon="121.485400"></trkpt>
      <trkpt lat="31.221600" lon="121.484800"></trkpt>
      <trkpt lat="31.221400" lon="121.484200"></trkpt>
      <trkpt lat="31.221200" lon="121.483600"></trkpt>
      <trkpt lat="31.221000" lon="121.483000"></trkpt>
      <trkpt lat="31.220800" lon="121.482400"></trkpt>
      <trkpt lat="31.220600" lon="121.481800"></trkpt>
      <trkpt lat="31.220400" lon="121.481200"></trkpt>
      <trkpt lat="31.220200" lon="121.480600"></trkpt>
      <trkpt lat="31.220000" lon="121.480000"></trkpt>
    </trkseg>
  </trk>
</gpx>